$$SOE
2461302.500000000, A.D. 2026-Sep-19 00:00:00.0000, 2.729395720293061E+06, 3.871811750597996E+08, 1.571916965183124E+07,
2461309.500000000, A.D. 2026-Sep-26 00:00:00.0000, -7.949599663566503E+06, 3.869465728852698E+08, 1.498483586298615E+07,
2461316.500000000, A.D. 2026-Oct-03 00:00:00.0000, -1.862205786961903E+07, 3.863887072939904E+08, 1.423798151172090E+07,
2461323.500000000, A.D. 2026-Oct-10 00:00:00.0000, -2.927903962811898E+07, 3.855074946309367E+08, 1.347921060881889E+07,
2461330.500000000, A.D. 2026-Oct-17 00:00:00.0000, -3.991158269951693E+07, 3.843030539211712E+08, 1.270913682596982E+07,
2461337.500000000, A.D. 2026-Oct-24 00:00:00.0000, -5.051070372888181E+07, 3.827757086552072E+08, 1.192838344476631E+07,
2461344.500000000, A.D. 2026-Oct-31 00:00:00.0000, -6.106740010222672E+07, 3.809259885801163E+08, 1.113758328439781E+07,
2461351.500000000, A.D. 2026-Nov-07 00:00:00.0000, -7.157265148015742E+07, 3.787546315689548E+08, 1.033737858224580E+07,
2461358.500000000, A.D. 2026-Nov-14 00:00:00.0000, -8.201742082347690E+07, 3.762625864554287E+08, 9.528420880732626E+06,
2461365.500000000, A.D. 2026-Nov-21 00:00:00.0000, -9.239265673694514E+07, 3.734510175173248E+08, 8.711371141282052E+06,
2461372.500000000, A.D. 2026-Nov-28 00:00:00.0000, -1.026892981398960E+08, 3.703213075974090E+08, 7.886899929871932E+06,
2461379.500000000, A.D. 2026-Dec-05 00:00:00.0000, -1.128982776586753E+08, 3.668750591966345E+08, 7.055687287870839E+06,
2461386.500000000, A.D. 2026-Dec-12 00:00:00.0000, -1.230105235925138E+08, 3.631140966489455E+08, 6.218422526217893E+06,
2461393.500000000, A.D. 2026-Dec-19 00:00:00.0000, -1.330169623512422E+08, 3.590404693793624E+08, 5.375804115047023E+06,
2461400.500000000, A.D. 2026-Dec-26 00:00:00.0000, -1.429085215206408E+08, 3.546564553651801E+08, 4.528539609872699E+06,
2461407.500000000, A.D. 2027-Jan-02 00:00:00.0000, -1.526761332981854E+08, 3.499645645980499E+08, 3.677345572783574E+06,
2461414.500000000, A.D. 2027-Jan-09 00:00:00.0000, -1.623107382027681E+08, 3.449675425599662E+08, 2.822947478737161E+06,
2461421.500000000, A.D. 2027-Jan-16 00:00:00.0000, -1.718032890420773E+08, 3.396683737169282E+08, 1.966079603102341E+06,
2461428.500000000, A.D. 2027-Jan-23 00:00:00.0000, -1.811447551082672E+08, 3.340702849836673E+08, 1.107484881214187E+06,
2461435.500000000, A.D. 2027-Jan-30 00:00:00.0000, -1.903261264301920E+08, 3.281767491003905E+08, 2.479147169039994E+05,
2461442.500000000, A.D. 2027-Feb-06 00:00:00.0000, -1.993384176752247E+08, 3.219914882467929E+08, -6.118712729694247E+05,
2461449.500000000, A.D. 2027-Feb-13 00:00:00.0000, -2.081726721819986E+08, 3.155184790979875E+08, -1.471105437888801E+06,
2461456.500000000, A.D. 2027-Feb-20 00:00:00.0000, -2.168199685098040E+08, 3.087619585196435E+08, -2.329012046960473E+06,
2461463.500000000, A.D. 2027-Feb-27 00:00:00.0000, -2.252714281245164E+08, 3.017264266742862E+08, -3.184807408724412E+06,
2461470.500000000, A.D. 2027-Mar-06 00:00:00.0000, -2.335182212194908E+08, 2.944166494393221E+08, -4.037700278451487E+06,
2461477.500000000, A.D. 2027-Mar-13 00:00:00.0000, -2.415515722937586E+08, 2.868376621691917E+08, -4.886892240875468E+06,
2461484.500000000, A.D. 2027-Mar-20 00:00:00.0000, -2.493627666342405E+08, 2.789947739513342E+08, -5.731578035632417E+06,
2461491.500000000, A.D. 2027-Mar-27 00:00:00.0000, -2.569431575141468E+08, 2.708935717852285E+08, -6.570945890954614E+06,
2461498.500000000, A.D. 2027-Apr-03 00:00:00.0000, -2.642841739195549E+08, 2.625399246116478E+08, -7.404177890141159E+06,
2461505.500000000, A.D. 2027-Apr-10 00:00:00.0000, -2.713773287580937E+08, 2.539399871885789E+08, -8.230450376582563E+06,
2461512.500000000, A.D. 2027-Apr-17 00:00:00.0000, -2.782142275423417E+08, 2.451002037713420E+08, -9.048934402589336E+06,
2461519.500000000, A.D. 2027-Apr-24 00:00:00.0000, -2.847865774824925E+08, 2.360273115047964E+08, -9.858796236402109E+06,
2461526.500000000, A.D. 2027-May-01 00:00:00.0000, -2.910861967011623E+08, 2.267283435233866E+08, -1.065919795456222E+07,
2461533.500000000, A.D. 2027-May-08 00:00:00.0000, -2.971050232742416E+08, 2.172106324728622E+08, -1.144929808857191E+07,
2461540.500000000, A.D. 2027-May-15 00:00:00.0000, -3.028351256062929E+08, 2.074818153706661E+08, -1.222825211273429E+07,
2461547.500000000, A.D. 2027-May-22 00:00:00.0000, -3.082687157159459E+08, 1.975498371780567E+08, -1.299521284413727E+07,
2461554.500000000, A.D. 2027-May-29 00:00:00.0000, -3.133981620787997E+08, 1.874229515782912E+08, -1.374933118438410E+07,
2461561.500000000, A.D. 2027-Jun-05 00:00:00.0000, -3.182160011419929E+08, 1.771097220457451E+08, -1.448975702898312E+07,
2461568.500000000, A.D. 2027-Jun-12 00:00:00.0000, -3.227149495230343E+08, 1.666190235903150E+08, -1.521564012686226E+07,
2461575.500000000, A.D. 2027-Jun-19 00:00:00.0000, -3.268879172263644E+08, 1.559600441980184E+08, -1.592613093840048E+07,
2461582.500000000, A.D. 2027-Jun-26 00:00:00.0000, -3.307280215936872E+08, 1.451422856591716E+08, -1.662038154050835E+07,
2461589.500000000, A.D. 2027-Jul-03 00:00:00.0000, -3.342286018476897E+08, 1.341755637412282E+08, -1.729754659135505E+07,
2461596.500000000, A.D. 2027-Jul-10 00:00:00.0000, -3.373832341811658E+08, 1.230700076615746E+08, -1.795678435847681E+07,
2461603.500000000, A.D. 2027-Jul-17 00:00:00.0000, -3.401857473405414E+08, 1.118360587663779E+08, -1.859725781773150E+07,
2461610.500000000, A.D. 2027-Jul-24 00:00:00.0000, -3.426302385286083E+08, 1.004844682961309E+08, -1.921813584336937E+07,
2461617.500000000, A.D. 2027-Jul-31 00:00:00.0000, -3.447110891916268E+08, 8.902629441542554E+07, -1.981859450827979E+07,
2461624.500000000, A.D. 2027-Aug-07 00:00:00.0000, -3.464229808633201E+08, 7.747289959911752E+07, -2.039781838228317E+07,
2461631.500000000, A.D. 2027-Aug-14 00:00:00.0000, -3.477609133359057E+08, 6.583594806098324E+07, -2.095500163881161E+07,
2461638.500000000, A.D. 2027-Aug-21 00:00:00.0000, -3.487202245069943E+08, 5.412739980309168E+07, -2.148934930282293E+07,
2461645.500000000, A.D. 2027-Aug-28 00:00:00.0000, -3.492966084264937E+08, 4.235950243620075E+07, -2.200007885604662E+07,
2461652.500000000, A.D. 2027-Sep-04 00:00:00.0000, -3.494861326640545E+08, 3.054478321768859E+07, -2.248642188404481E+07,
2461659.500000000, A.D. 2027-Sep-11 00:00:00.0000, -3.492852563269774E+08, 1.869604058563918E+07, -2.294762568816889E+07,
2461666.500000000, A.D. 2027-Sep-18 00:00:00.0000, -3.486908485272944E+08, 6.826334479745080E+06, -2.338295492483389E+07,
2461673.500000000, A.D. 2027-Sep-25 00:00:00.0000, -3.477002069965440E+08, -5.051024686745567E+06, -2.379169329634641E+07,
2461680.500000000, A.D. 2027-Oct-02 00:00:00.0000, -3.463110766987241E+08, -1.692248843154316E+07, -2.417314529555076E+07,
2461687.500000000, A.D. 2027-Oct-09 00:00:00.0000, -3.445216683412373E+08, -2.877428403607461E+07, -2.452663800483444E+07,
2461694.500000000, A.D. 2027-Oct-16 00:00:00.0000, -3.423306766346527E+08, -4.059242989978521E+07, -2.485152295699544E+07,
2461701.500000000, A.D. 2027-Oct-23 00:00:00.0000, -3.397372979444847E+08, -5.236275245325360E+07, -2.514717807777448E+07,
2461708.500000000, A.D. 2027-Oct-30 00:00:00.0000, -3.367412468530930E+08, -6.407090404590015E+07, -2.541300968837864E+07,
2461715.500000000, A.D. 2027-Nov-06 00:00:00.0000, -3.333427726795532E+08, -7.570238070088743E+07, -2.564845436176540E+07,
2461722.500000000, A.D. 2027-Nov-13 00:00:00.0000, -3.295426778230476E+08, -8.724254182861772E+07, -2.585298061268857E+07,
2461729.500000000, A.D. 2027-Nov-20 00:00:00.0000, -3.253423349076329E+08, -9.867663409088437E+07, -2.602609085878564E+07,
2461736.500000000, A.D. 2027-Nov-27 00:00:00.0000, -3.207437009848152E+08, -1.099898164431752E+08, -2.616732354980441E+07,
2461743.500000000, A.D. 2027-Dec-04 00:00:00.0000, -3.157493306812431E+08, -1.211671854210504E+08, -2.627625519371570E+07,
2461750.500000000, A.D. 2027-Dec-11 00:00:00.0000, -3.103623887022305E+08, -1.321938016066019E+08, -2.635250229687847E+07,
2461757.500000000, A.D. 2027-Dec-18 00:00:00.0000, -3.045866612793630E+08, -1.430547175755134E+08, -2.639572326072792E+07,
2461764.500000000, A.D. 2027-Dec-25 00:00:00.0000, -2.984265662751321E+08, -1.537350072727836E+08, -2.640562023813426E+07,
2461771.500000000, A.D. 2028-Jan-01 00:00:00.0000, -2.918871617671397E+08, -1.642197967327060E+08, -2.638194093991099E+07,
$$EOE